SL-8 R/B                
1 19257U 88053B   26067.62430779  .00000342  00000+0  11922-3 0  9993
2 19257  74.0462 114.4304 0021401 293.8475 182.5791 14.38915235976446
COSMOS 1975             
1 19573U 88093A   26067.61158049  .00010542  00000+0  38331-3 0  9990
2 19573  82.5181 118.7674 0012038 167.1429 193.0119 15.28054283 19248
SL-14 R/B               
1 19574U 88093B   26067.46048176  .00000849  00000+0  94863-4 0  9995
2 19574  82.5304  43.1975 0021843  45.3232  72.2821 14.85655229   836
SL-16 R/B               
1 19650U 88102B   26067.63350137  .00000302  00000+0  17681-3 0  9999
2 19650  71.0000 153.7196 0013888   3.3231 356.7981 14.16151420926745
INTERCOSMOS 24          
1 20261U 89080A   26067.53167381  .00000973  00000+0  28986-3 0  9995
2 20261  82.6028 105.1585 1186712 295.5108  52.7949 12.59556211666652
SL-14 R/B               
1 20262U 89080C   26067.59558962  .00000829  00000+0  24580-3 0  9997
2 20262  82.5974 173.8883 1230534 187.2494 170.9255 12.50492282660017
DELTA 1 R/B             
1 20323U 89089B   26067.58619538  .00000460  00000+0  12209-3 0  9996
2 20323  97.0706 275.2004 0070409 125.4161 235.3640 14.50662106895579
ARIANE 40 R/B           
1 20443U 90005H   26067.14574379  .00000385  00000+0  13608-3 0  9994
2 20443  98.3086 127.8532 0009749 203.1950 156.8800 14.39869513892585
DELTA 2 R/B(1)          
1 20453U 90008B   26067.41212624  .00091801  00000+0  10759-2 0  9996
2 20453  35.6042 183.2376 0085677 246.9553 112.2130 15.55817429925938
COSMOS 2058             
1 20465U 90010A   26067.39016667  .00006588  00000+0  38917-3 0  9993
2 20465  82.4670  48.7083 0009477 348.3196  11.7813 15.11309469942046
SL-14 R/B               
1 20466U 90010B   26067.60775240  .00000552  00000+0  63994-4 0  9996
2 20466  82.4988 268.4055 0018606 306.1593  53.7900 14.83567933928324
SL-14 R/B               
1 20511U 90018B   26067.48953471  .00000746  00000+0  90584-4 0  9995
2 20511  82.5201 224.2114 0017667  95.6739 264.6491 14.82143691922409
HST                     
1 20580U 90037B   26067.05050796  .00011037  00000+0  36739-3 0  9999
2 20580  28.4714  51.1800 0001797 110.1029 249.9760 15.29454135773065
SL-16 R/B               
1 20625U 90046B   26067.63681254 -.00000247  00000+0 -10260-3 0  9996
2 20625  70.9988 300.1262 0016230 301.0801  58.8729 14.15012777848247
COSMOS 2084             
1 20663U 90055A   26067.19442589  .00004090  00000+0  29485-3 0  9992
2 20663  62.7922 340.6779 0017245 189.4903 170.5875 15.05642001936090
SL-6 R/B(2)             
1 20666U 90055D   26067.24152510  .00003059  00000+0  23588-3 0  9995
2 20666  62.7824 258.7755 0024485 346.6765  13.3685 15.03587268937976
SL-8 R/B                
1 20775U 90078B   26067.56767515  .00021146  00000+0  62262-3 0  9992
2 20775  82.9002 252.3200 0362517  17.7819 343.5702 14.89017204809136
